TRANSPORTER-10 OBJECT AD
1 59125U 24043AD  26068.86032889  .00011954  00000+0  36311-3 0  9997
2 59125  97.5470 207.3753 0008984 221.4908 138.5653 15.34189901112026
STARLINK-32814          
1 62871U 25022T   26068.45760492  .00021327  00000+0  73042-3 0  9997
2 62871  53.1570 130.7610 0001374  90.3194 269.7964 15.30186300 61867
