[{"OBJECT_NAME":"TRANSPORTER-10 OBJECT AD","OBJECT_ID":"2024-043AD","EPOCH":"2026-03-09T20:38:52.416960","MEAN_MOTION":15.34189901,"ECCENTRICITY":0.00089841,"INCLINATION":97.547,"RA_OF_ASC_NODE":207.3753,"ARG_OF_PERICENTER":221.4908,"MEAN_ANOMALY":138.5653,"EPHEMERIS_TYPE":0,"CLASSIFICATION_TYPE":"U","NORAD_CAT_ID":59125,"ELEMENT_SET_NO":999,"REV_AT_EPOCH":11202,"BSTAR":0.00036310552,"MEAN_MOTION_DOT":0.00011954,"MEAN_MOTION_DDOT":0},{"OBJECT_NAME":"STARLINK-32814","OBJECT_ID":"2025-022T","EPOCH":"2026-03-09T10:58:57.065088","MEAN_MOTION":15.301863,"ECCENTRICITY":0.00013744,"INCLINATION":53.157,"RA_OF_ASC_NODE":130.761,"ARG_OF_PERICENTER":90.3194,"MEAN_ANOMALY":269.7964,"EPHEMERIS_TYPE":0,"CLASSIFICATION_TYPE":"U","NORAD_CAT_ID":62871,"ELEMENT_SET_NO":999,"REV_AT_EPOCH":6186,"BSTAR":0.00073042305,"MEAN_MOTION_DOT":0.00021327,"MEAN_MOTION_DDOT":0}]
